{
    "links": {
        "self": "http://www.neowsapp.com/rest/v1/neo/54087762?api_key=iIulBulltgU6a56xZRHN4H3l9WmuAYTsLGpBGhQ2"
    },
    "id": "54087762",
    "neo_reference_id": "54087762",
    "name": "(2020 VV3)",
    "designation": "2020 VV3",
    "nasa_jpl_url": "http://ssd.jpl.nasa.gov/sbdb.cgi?sstr=54087762",
    "absolute_magnitude_h": 26.303,
    "estimated_diameter": {
        "kilometers": {
            "estimated_diameter_min": 0.0145866303,
            "estimated_diameter_max": 0.032616697
        },
        "meters": {
            "estimated_diameter_min": 14.5866303256,
            "estimated_diameter_max": 32.6166969706
        },
        "miles": {
            "estimated_diameter_min": 0.0090637091,
            "estimated_diameter_max": 0.0202670696
        },
        "feet": {
            "estimated_diameter_min": 47.8564002373,
            "estimated_diameter_max": 107.0101640891
        }
    },
    "is_potentially_hazardous_asteroid": false,
    "close_approach_data": [
        {
            "close_approach_date": "2020-11-08",
            "close_approach_date_full": "2020-Nov-08 09:04",
            "epoch_date_close_approach": 1604826240000,
            "relative_velocity": {
                "kilometers_per_second": "11.6808418106",
                "kilometers_per_hour": "42051.030518264",
                "miles_per_hour": "26128.8750461958"
            },
            "miss_distance": {
                "astronomical": "0.0103229672",
                "lunar": "4.0156342408",
                "kilometers": "1544293.905199864",
                "miles": "959579.7363875632"
            },
            "orbiting_body": "Earth"
        }
    ],
    "orbital_data": {
        "orbit_id": "7",
        "orbit_determination_date": "2020-11-19 05:21:41",
        "first_observation_date": "2020-11-12",
        "last_observation_date": "2020-11-19",
        "data_arc_in_days": 7,
        "observations_used": 35,
        "orbit_uncertainty": "8",
        "minimum_orbit_intersection": ".00997269",
        "jupiter_tisserand_invariant": "3.324",
        "epoch_osculation": "2459168.5",
        "eccentricity": ".6007957754528669",
        "semi_major_axis": "2.296840878740775",
        "inclination": "4.637580442560955",
        "ascending_node_longitude": "232.5065637613678",
        "orbital_period": "1271.436838369788",
        "perihelion_distance": ".916908581905867",
        "perihelion_argument": "135.7679136272805",
        "aphelion_distance": "3.676773175575684",
        "perihelion_time": "2459133.813739457105",
        "mean_anomaly": "9.821214407671922",
        "mean_motion": ".2831442263868845",
        "equinox": "J2000",
        "orbit_class": {
            "orbit_class_type": "APO",
            "orbit_class_description": "Near-Earth asteroid orbits which cross the Earth’s orbit similar to that of 1862 Apollo",
            "orbit_class_range": "a (semi-major axis) > 1.0 AU; q (perihelion) < 1.017 AU"
        }
    },
    "is_sentry_object": false
}